     3.02           N: GNSS NAV DATA    M: Mixed            RINEX VERSION / TYPE
RTKCONV 2.4.3 b32                       20200116 032223 UTC PGM / RUN BY / DATE 
log: C:\Users\ykouk\Desktop\1133\log_base_station.ubx       COMMENT             
format: u-blox                                              COMMENT             
                                                            END OF HEADER       
C 7 2020  1 16  2  0  0  .897822901607E-04 -.269864131042E-10  .000000000000E+00
      .500000000000E+01 -.130109375000E+03  .200401204657E-08  .196646000906E+01
     -.410806387663E-05  .692375714425E-02  .871531665325E-05  .649380181122E+04
      .352800000000E+06 -.316649675369E-06 -.298093100075E+01  .659842044115E-06
      .903514758673E+00 -.544375000000E+02 -.263430986233E+01 -.274154276769E-08
     -.769317759458E-09  .000000000000E+00  .732000000000E+03  .100000000000E+01
      .200000000000E+01  .000000000000E+00  .138000000000E-07  .600000000000E-09
      .354270000000E+06  .000000000000E+00
C 8 2020  1 16  2  0  0 -.849933130667E-04 -.117132969990E-10  .000000000000E+00
      .100000000000E+01  .148437500000E+03  .129433962873E-08 -.111577341221E+00
      .483589246869E-05  .482695142273E-02  .951346009970E-06  .649276493263E+04
      .352800000000E+06  .359024852514E-06 -.833501601613E+00 -.558793544769E-08
      .103077931278E+01  .228656250000E+03 -.272222582610E+01 -.251010455593E-08
      .511807033103E-09  .000000000000E+00  .732000000000E+03  .100000000000E+01
      .200000000000E+01  .000000000000E+00  .101000000000E-07 -.100000000000E-08
      .354270000000E+06  .000000000000E+00
